INTELSAT 902 (IS-902)   
1 26900U 01039A   26176.51502705 -.00000279  00000+0  00000+0 0  9994
2 26900   6.1373  71.6819 0004225  22.8132 314.4640  1.00271919 90777
INTELSAT 904 (IS-904)   
1 27380U 02007A   26176.57569770 -.00000221  00000+0  00000+0 0  9991
2 27380   6.9409  69.0858 0006537  10.0558  10.3274  1.00273321 51851
DIRECTV 5 (TEMPO 1)     
1 27426U 02023A   26176.36055021 -.00000052  00000+0  00000+0 0  9998
2 27426   4.8988  75.2126 0003505  23.2638 194.7207  1.00272979 88205
INTELSAT 905 (IS-905)   
1 27438U 02027A   26176.41711499  .00000096  00000+0  00000+0 0  9996
2 27438   6.7745  69.7029 0005068  16.9217 199.8951  1.00293519 51449
GALAXY 3C (G-3C)        
1 27445U 02030A   26176.03978844 -.00000146  00000+0  00000+0 0  9992
2 27445   3.7528  77.8806 0001934  27.0363  87.7469  1.00272136 46578
INTELSAT 906 (IS-906)   
1 27513U 02041A   26176.18122740  .00000017  00000+0  00000+0 0  9998
2 27513   5.8222  72.8229 0004258   5.8574 324.0267  1.00271821 87109
GALAXY 13 (HORIZONS-1)  
1 27954U 03044A   26176.54558626  .00000142  00000+0  00000+0 0  9996
2 27954   1.4402  83.7574 0001733   0.4297 235.9091  1.00269364 46651
INTELSAT 10-02          
1 28358U 04022A   26176.38221698 -.00000001  00000+0  00000+0 0  9995
2 28358   0.0268 285.1354 0000282 208.0196 276.9642  1.00273298 80635
DIRECTV 8               
1 28659U 05019A   26176.50142031  .00000011  00000+0  00000+0 0  9993
2 28659   0.0177  64.4645 0003211  33.9330 236.7038  1.00270952 77159
GALAXY 28 (G-28)        
1 28702U 05022A   26176.37701696 -.00000193  00000+0  00000+0 0  9991
2 28702   3.3189  78.8326 0002307  13.5338 289.7814  1.00271390 52058
GALAXY 16 (G-16)        
1 29236U 06023A   26176.50532034 -.00000117  00000+0  00000+0 0  9995
2 29236   0.0420 134.9740 0002859 306.5185 275.0532  1.00272142 73058
DIRECTV 9S              
1 29494U 06043A   26176.50488699 -.00000105  00000+0  00000+0 0  9997
2 29494   2.4424  80.8122 0005359  17.6702 255.7165  1.00271770 51464
GALAXY 17 (G-17)        
1 31307U 07016B   26176.50809368 -.00000199  00000+0  00000+0 0  9997
2 31307   2.9931  79.8023 0004540  18.1719 273.5770  1.00271571 69885
INTELSAT 11 (IS-11)     
1 32253U 07044B   26176.15962497 -.00000013  00000+0  00000+0 0  9998
2 32253   3.5864  78.5794 0002922  84.1600 258.8083  0.99048006 68528
HORIZONS-2              
1 32388U 07063B   26176.51034703 -.00000245  00000+0  00000+0 0  9995
2 32388   2.6236  80.5312 0004135   5.0731 297.9685  1.00271711 67899
DIRECTV 11              
1 32729U 08013A   26176.50532034 -.00000115  00000+0  00000+0 0  9995
2 32729   0.0129 247.1513 0000354 192.1954 277.0256  1.00271331 45672
GALAXY 18 (G-18)        
1 32951U 08024A   26176.50064031  .00000000  00000+0  00000+0 0  9993
2 32951   0.0242   5.0549 0003214  92.4566 233.3677  1.00269192 45937
GALAXY 19 (G-19)        
1 33376U 08045A   26176.50575367 -.00000129  00000+0  00000+0 0  9990
2 33376   0.0445 260.5034 0002810 202.0976 256.1150  1.00270817 64987
FM-5                    
1 35493U 09034A   26176.36531690 -.00000190  00000+0  00000+0 0  9994
2 35493   0.0203 294.4204 0000738  45.0543 339.3759  1.00270339 46728
INTELSAT 14 (IS-14)     
1 36097U 09064A   26176.37346360 -.00000264  00000+0  00000+0 0  9999
2 36097   0.0177   7.5777 0002607  84.7183 270.6608  1.00272408 60684
INTELSAT 15 (IS-15)     
1 36106U 09067A   26176.54170663 -.00000175  00000+0  00000+0 0  9994
2 36106   0.0130  29.1422 0002497  68.4736  96.2280  1.00271734 41319
DIRECTV 12              
1 36131U 09075A   26176.50462699 -.00000093  00000+0  00000+0 0  9999
2 36131   0.0372 153.7847 0000263 348.7482 210.0484  1.00271037 46639
INTELSAT 16 (IS-16)     
1 36397U 10006A   26176.36731024 -.00000235  00000+0  00000+0 0  9992
2 36397   0.0098  23.0120 0002381  86.6165 219.9025  1.00271091 59734
XM-5                    
1 37185U 10053A   26176.50220031 -.00000013  00000+0  00000+0 0  9991
2 37185   0.0617 272.1965 0002678 281.8942 145.1396  1.00271055 57562
INTELSAT 17 (IS-17)     
1 37238U 10065B   26176.53806662  .00000009  00000+0  00000+0 0  9990
2 37238   0.0401 147.0669 0002799 306.9730  79.3297  1.00272244 53331
INTELSAT 28 (IS-28)     
1 37392U 11016A   26176.37606361 -.00000216  00000+0  00000+0 0  9995
2 37392   1.8275  82.5305 0003970  10.4749 284.1611  1.00271672 53362
INTELSAT 18 (IS-18)     
1 37834U 11056A   26176.41807550  .00000063  00000+0  00000+0 0  9997
2 37834   0.0186 291.0324 0002033 166.3252 146.6946  1.00272659 53899
INTELSAT 22 (IS-22)     
1 38098U 12011A   26176.53927995  .00000000  00000+0  00000+0 0  9992
2 38098   0.0346  50.7061 0001994  85.8313  43.3858  1.00270653  7274
INTELSAT 19 (IS-19)     
1 38356U 12030A   26175.81850399 -.00000047  00000+0  00000+0 0  9995
2 38356   0.0179   1.9960 0003321  99.4834 272.1565  1.00273280 50528
INTELSAT 20 (IS-20)     
1 38740U 12043A   26175.87197582  .00000000  00000+0  00000+0 0  9998
2 38740   0.0375  69.0879 0002337 110.0778 116.2550  1.00271269 50820
INTELSAT 21 (IS-21)     
1 38749U 12045A   26176.37086359 -.00000275  00000+0  00000+0 0  9999
2 38749   0.0215  65.9228 0001778  42.3683 240.7282  1.00270899 50604
INTELSAT 23 (IS-23)     
1 38867U 12057A   26176.51450705 -.00000275  00000+0  00000+0 0  9999
2 38867   0.0152  11.7546 0000120 150.4114 243.6979  1.00271894 50035
FM-6                    
1 39360U 13058A   26176.50194031 -.00000006  00000+0  00000+0 0  9998
2 39360   0.0153  51.1956 0001638 129.4828 157.3597  1.00271098 46152
INTELSAT 30 (IS-30)     
1 40271U 14062A   26176.36358355 -.00000141  00000+0  00000+0 0  9992
2 40271   0.0269  55.6231 0001488 338.6495 275.0652  1.00272157  6877
DIRECTV 14              
1 40333U 14078B   26176.36271689 -.00000116  00000+0  00000+0 0  9994
2 40333   0.0098  19.2836 0000353   6.4271 279.1338  1.00272630 42125
DIRECTV 15              
1 40663U 15026A   26176.50462699 -.00000092  00000+0  00000+0 0  9996
2 40663   0.0177  60.3943 0000530 338.1020 313.9308  1.00270387 40544
SKY MEXICO-1            
1 40664U 15026B   26176.50939368  .00000000  00000+0  00000+0 0  9997
2 40664   0.0256 359.1063 0002676 115.2462 263.8772  1.00268983 40538
INTELSAT 34 (IS-34)     
1 40874U 15039A   26176.37138359 -.00000275  00000+0  00000+0 0  9995
2 40874   0.0077 354.3653 0000477  26.9885 330.3532  1.00270119 39714
INTELSAT 31 (IS-31)     
1 41581U 16035A   26176.36358355 -.00000141  00000+0  00000+0 0  9999
2 41581   0.0133 298.7394 0000685 318.5498  52.0469  1.00270776 36765
INTELSAT 36 (IS-36)     
1 41747U 16053A   26176.18209406 -.00000015  00000+0  00000+0 0  9995
2 41747   0.0128  20.9268 0002042 321.7510  64.7168  1.00272521 36034
INTELSAT 32E (IS-32E)   
1 41945U 17007B   26176.51641372  .00000000  00000+0  00000+0 0  9997
2 41945   0.0262  11.8636 0000693 345.3155  59.2005  1.00268740 34303
INTELSAT 35E (IS-35E)   
1 42818U 17041A   26176.51806039  .00000000  00000+0  00000+0 0  9998
2 42818   0.0245  11.9779 0002380  83.8780 329.8151  1.00269523 32896
INTELSAT 37E (IS-37E)   
1 42950U 17059A   26176.24627916  .00000000  00000+0  00000+0 0  9999
2 42950   0.0263  16.2605 0003094 103.0907 224.6854  1.00268809 32144
AZERSPACE 2 (IS-38)     
1 43632U 18074A   26176.17741404  .00000146  00000+0  00000+0 0  9997
2 43632   0.0035  82.5969 0001586  10.3273 289.3716  1.00272596 28528
HORIZONS-3E             
1 43633U 18074B   26175.13266341 -.00000024  00000+0  00000+0 0  9991
2 43633   0.0084 244.9552 0000546  64.2971 179.8035  1.00270268 28412
AT&T T-16               
1 44333U 19034A   26175.35600175 -.00000107  00000+0  00000+0 0  9999
2 44333   0.0237  70.4808 0000422 236.8286 352.4898  1.00269632 25703
INTELSAT 39 (IS-39)     
1 44476U 19049B   26176.53728662  .00000000  00000+0  00000+0 0  9997
2 44476   0.0262   7.3307 0000771 349.0040 172.7126  1.00270995 25211
GALAXY 30 (G-30)        
1 46114U 20056C   26175.71600622  .00000046  00000+0  00000+0 0  9992
2 46114   0.0130  51.5985 0002220  38.3382 315.6757  1.00270732 21366
GALAXY 33 (G-33)        
1 54026U 22128A   26176.49864697  .00000089  00000+0  00000+0 0  9992
2 54026   0.0160 355.3962 0002020  93.8015 230.9527  1.00271023 13827
GALAXY 34 (G-34)        
1 54027U 22128B   26175.57264679  .00000066  00000+0  00000+0 0  9990
2 54027   0.0145   9.2904 0002066  88.7541 251.8415  1.00277187 13981
GALAXY 31 (G-31)        
1 54243U 22153A   26176.12475458  .00000000  00000+0  00000+0 0  9997
2 54243   0.0172   2.5644 0001511  93.8237 100.7977  1.00272384  7219
GALAXY 32 (G-32)        
1 54244U 22153B   26175.22367264 -.00000167  00000+0  00000+0 0  9998
2 54244   0.0097   2.1596 0002133  41.7877 217.9513  1.00271380 13210
GALAXY 35 (G-35)        
1 54741U 22170A   26176.50653367 -.00000152  00000+0  00000+0 0  9997
2 54741   0.0151 313.9597 0002127 137.7435 271.1814  1.00271482 12977
GALAXY 36 (G-36)        
1 54742U 22170B   26176.50731367 -.00000175  00000+0  00000+0 0  9990
2 54742   0.0345 130.5652 0002834 317.2612 279.4552  1.00271737 12855
GALAXY 37 (G-37)        
1 57493U 23112A   26175.95392100  .00000057  00000+0  00000+0 0  9997
2 57493   0.0160  31.7708 0002245  61.6422  36.1021  1.00273244 10622
